NORAD_CAT_ID,OBJECT_NAME,OBJECT_TYPE,EPOCH,MEAN_MOTION,ECCENTRICITY,INCLINATION,RA_OF_ASC_NODE,ARG_OF_PERICENTER,MEAN_ANOMALY,BSTAR,MEAN_MOTION_DOT,MEAN_MOTION_DDOT,TLE_LINE0,TLE_LINE1,TLE_LINE2,SEMIMAJOR_AXIS,PERIOD,APOGEE,PERIGEE,DECAYED
49759.0,STARLINK-3204,PAYLOAD,2023-01-05 14:45:01,15.08867091,0.0001646,53.2148,302.4152,55.2654,304.8493,0.00037927,5.758e-05,0.0,0 STARLINK-3204,1 49759U 21115AM  23005.61460598  .00005758  00000-0  37927-3 0  9999,2 49759  53.2148 302.4152 0001646  55.2654 304.8493 15.08867091 60697,6917.7980000000025,95.436,540.8009999999998,538.524,0.0
49759.0,STARLINK-3204,PAYLOAD,2023-01-06 05:03:30,15.08848195,0.0001551,53.2145,299.7391,57.4031,302.7111,-0.0001337,-2.416e-05,0.0,0 STARLINK-3204,1 49759U 21115AM  23006.21076971 -.00002416  00000-0 -13370-3 0  9990,2 49759  53.2145 299.7391 0001551  57.4031 302.7111 15.08848195 61896,6917.855,95.437,540.793,538.6469999999998,0.0
49759.0,STARLINK-3204,PAYLOAD,2023-01-07 20:48:12,15.08830606,0.0001378,53.2154,292.3043,30.2654,329.8417,0.00057378,8.853e-05,0.0,0 STARLINK-3204,1 49759U 21115AM  23007.86680664  .00008853  00000-0  57378-3 0  9997,2 49759  53.2154 292.3043 0001378  30.2654 329.8417 15.08830606 62142,6917.9090000000015,95.438,540.727,538.821,0.0
49759.0,STARLINK-3204,PAYLOAD,2023-01-08 04:45:06,15.08821063,0.000153,53.2149,290.8181,61.2649,298.8497,0.00052437,8.063e-05,0.0,0 STARLINK-3204,1 49759U 21115AM  23008.19799195  .00008063  00000-0  52437-3 0  9998,2 49759  53.2149 290.8181 0001530  61.2649 298.8497 15.08821063 62195,6917.938,95.439,540.862,538.745,0.0
49759.0,STARLINK-3204,PAYLOAD,2023-01-09 03:00:30,15.08848446,0.0001406999999999,53.2144,286.6565,53.4349,306.6772,0.00063571,9.846e-05,0.0,0 STARLINK-3204,1 49759U 21115AM  23009.12535069  .00009846  00000-0  63571-3 0  9991,2 49759  53.2144 286.6565 0001407  53.4349 306.6772 15.08848446 62336,6917.855,95.437,540.693,538.746,0.0
49759.0,STARLINK-3204,PAYLOAD,2023-01-09 10:57:25,15.08846061,0.0001653,53.215,285.1690000000001,48.6443,311.4691,0.00032983,4.966e-05,0.0,0 STARLINK-3204,1 49759U 21115AM  23009.45655053  .00004966  00000-0  32983-3 0  9994,2 49759  53.2150 285.1690 0001653  48.6443 311.4691 15.08846061 61277,6917.861999999999,95.437,540.87,538.5830000000002,0.0
49759.0,STARLINK-3204,PAYLOAD,2023-01-10 10:48:13,15.08825815,0.0001916,53.214,280.7086,56.3553,303.7621,-0.0002782,-4.711e-05,0.0,0 STARLINK-3204,1 49759U 21115AM  23010.45015619 -.00004711  00000-0 -27820-3 0  9998,2 49759  53.2140 280.7086 0001916  56.3553 303.7621 15.08825815 62537,6917.924,95.438,541.114,538.4630000000002,0.0
49759.0,STARLINK-3204,PAYLOAD,2023-01-11 10:39:01,15.08838474,0.0001636,53.2128,276.2492,65.0705,295.0457,0.00031997,4.808e-05,0.0,0 STARLINK-3204,1 49759U 21115AM  23011.44376175  .00004808  00000-0  31997-3 0  9990,2 49759  53.2128 276.2492 0001636  65.0705 295.0457 15.08838474 62680,6917.885,95.438,540.882,538.618,0.0
49759.0,STARLINK-3204,PAYLOAD,2023-01-11 18:35:56,15.088465,0.0001669,53.2145,274.7616,66.7755,293.3413,0.00070076,0.00010884,0.0,0 STARLINK-3204,1 49759U 21115AM  23011.77496248  .00010884  00000-0  70076-3 0  9992,2 49759  53.2145 274.7616 0001669  66.7755 293.3413 15.08846500 61624,6917.861,95.437,540.88,538.571,0.0
49759.0,STARLINK-3204,PAYLOAD,2023-01-12 02:32:51,15.0886532,0.000174,53.2132,273.2734,68.1297,291.988,0.0011016,0.000173,0.0,0 STARLINK-3204,1 49759U 21115AM  23012.10615734  .00017300  00000-0  11016-2 0  9991,2 49759  53.2132 273.2734 0001740  68.1297 291.9880 15.08865320 62783,6917.803000000001,95.436,540.872,538.464,0.0
49759.0,STARLINK-3204,PAYLOAD,2023-01-12 16:51:20,15.08847701,0.0002003,53.2109,270.5994,73.9164,286.2048,0.00022158,3.241e-05,0.0,0 STARLINK-3204,1 49759U 21115AM  23012.70231919  .00003241  00000-0  22158-3 0  9995,2 49759  53.2109 270.5994 0002003  73.9164 286.2048 15.08847701 62871,6917.857,95.437,541.107,538.336,0.0
49759.0,STARLINK-3204,PAYLOAD,2023-01-12 21:37:29,15.08839313,0.0001375,53.2132,269.7057,76.8602,283.2544,5.5613e-05,5.97e-06,0.0,0 STARLINK-3204,1 49759U 21115AM  23012.90103964  .00000597  00000-0  55613-4 0  9999,2 49759  53.2132 269.7057 0001375  76.8602 283.2544 15.08839313 61795,6917.882,95.438,540.6990000000002,538.7959999999998,0.0
49759.0,STARLINK-3204,PAYLOAD,2023-01-13 10:20:35,15.08845401,0.0001437,53.2127,267.3261,77.084,283.0312,0.00076755,0.0001195,0.0,0 STARLINK-3204,1 49759U 21115AM  23013.43096160  .00011950  00000-0  76755-3 0  9991,2 49759  53.2127 267.3261 0001437  77.0840 283.0312 15.08845401 62984,6917.8640000000005,95.437,540.7230000000001,538.735,0.0
49759.0,STARLINK-3204,PAYLOAD,2023-01-13 16:42:07,15.08850738,0.0001411,53.2123,266.1373,76.0256,284.0892,0.00093896,0.00014692,0.0,0 STARLINK-3204,1 49759U 21115AM  23013.69592097  .00014692  00000-0  93896-3 0  9990,2 49759  53.2123 266.1373 0001411  76.0256 284.0892 15.08850738 61918,6917.848000000001,95.437,540.689,538.736,0.0
49759.0,STARLINK-3204,PAYLOAD,2023-01-14 02:14:26,15.08853802,0.0001657,53.213,264.3516,89.881,270.2372,0.00083213,0.00012985,0.0,0 STARLINK-3204,1 49759U 21115AM  23014.09336111  .00012985  00000-0  83213-3 0  9993,2 49759  53.2130 264.3516 0001657  89.8810 270.2372 15.08853802 63080,6917.838000000001,95.437,540.849,538.557,0.0
49759.0,STARLINK-3204,PAYLOAD,2023-01-14 10:11:22,15.08841141,0.0002288,53.2127,262.8639,87.1819,272.9435,0.00030519,4.572e-05,0.0,0 STARLINK-3204,1 49759U 21115AM  23014.42456549  .00004572  00000-0  30519-3 0  9992,2 49759  53.2127 262.8639 0002288  87.1819 272.9435 15.08841141 63134,6917.877,95.437,541.325,538.159,0.0
49759.0,STARLINK-3204,PAYLOAD,2023-01-15 02:05:13,15.0884815,0.0001899,53.2132,259.8908,80.0891,280.0316,0.00059413,9.182e-05,0.0,0 STARLINK-3204,1 49759U 21115AM  23015.08696343  .00009182  00000-0  59413-3 0  9999,2 49759  53.2132 259.8908 0001899  80.0891 280.0316 15.08848150 62127,6917.855,95.437,541.034,538.4069999999999,0.0
49759.0,STARLINK-3204,PAYLOAD,2023-01-15 22:45:14,15.08859752,0.000124,53.2124,256.0253,77.3114,282.8017,0.00076752,0.00011955,0.0,0 STARLINK-3204,1 49759U 21115AM  23015.94808021  .00011955  00000-0  76752-3 0  9998,2 49759  53.2124 256.0253 0001240  77.3114 282.8017 15.08859752 62259,6917.82,95.436,540.543,538.827,0.0
49759.0,STARLINK-3204,PAYLOAD,2023-01-16 08:17:32,15.08845731,0.0001498,53.2131,254.24,78.0756,282.0404,0.00027317,4.063e-05,0.0,0 STARLINK-3204,1 49759U 21115AM  23016.34552051  .00004063  00000-0  27317-3 0  9997,2 49759  53.2131 254.2400 0001498  78.0756 282.0404 15.08845731 63420,6917.863,95.437,540.764,538.692,0.0
49759.0,STARLINK-3204,PAYLOAD,2023-01-16 22:36:01,15.08832781,0.0001733999999999,53.2138,251.5643,92.9645,267.1545,6.8793e-06,-1.79e-06,0.0,0 STARLINK-3204,1 49759U 21115AM  23016.94168683 -.00000179  00000-0  68793-5 0  9997,2 49759  53.2138 251.5643 0001734  92.9645 267.1545 15.08832781 63512,6917.901999999999,95.438,540.967,538.568,0.0
49759.0,STARLINK-3204,PAYLOAD,2023-01-17 08:08:20,15.08833475,0.0001286999999999,53.2136,249.78,91.7217,268.3923,0.00020973,3.051e-05,0.0,0 STARLINK-3204,1 49759U 21115AM  23017.33912945  .00003051  00000-0  20973-3 0  9996,2 49759  53.2136 249.7800 0001287  91.7217 268.3923 15.08833475 62466,6917.9,95.438,540.656,538.875,0.0
49759.0,STARLINK-3204,PAYLOAD,2023-01-18 00:02:12,15.08834503,0.0001203,53.2135,246.8064,94.4761,265.6369,0.00032093,4.823e-05,0.0,0 STARLINK-3204,1 49759U 21115AM  23018.00153416  .00004823  00000-0  32093-3 0  9995,2 49759  53.2135 246.8064 0001203  94.4761 265.6369 15.08834503 63678,6917.897,95.438,540.594,538.93,0.0
49759.0,STARLINK-3204,PAYLOAD,2023-01-18 07:59:08,15.08842845,0.0001217,53.2134,245.3197,92.9714,267.1417,0.00051539,7.925e-05,0.0,0 STARLINK-3204,1 49759U 21115AM  23018.33273424  .00007925  00000-0  51539-3 0  9995,2 49759  53.2134 245.3197 0001217  92.9714 267.1417 15.08842845 62616,6917.871999999999,95.437,540.5790000000001,538.895,0.0
49759.0,STARLINK-3204,PAYLOAD,2023-01-18 20:42:12,15.08853547,0.0001137999999999,53.2131,242.94,91.9409,268.1713,0.00061192,9.468e-05,0.0,0 STARLINK-3204,1 49759U 21115AM  23018.86265036  .00009468  00000-0  61192-3 0  9993,2 49759  53.2131 242.9400 0001138  91.9409 268.1713 15.08853547 62694,6917.839,95.437,540.491,538.9169999999999,0.0
49759.0,STARLINK-3204,PAYLOAD,2023-01-18 22:17:36,15.08855915,0.0001152,53.2132,242.6427,91.5902,268.5222,0.00065006,0.00010077,0.0,0 STARLINK-3204,1 49759U 21115AM  23018.92888943  .00010077  00000-0  65006-3 0  9994,2 49759  53.2132 242.6427 0001152  91.5902 268.5222 15.08855915 63816,6917.831999999999,95.437,540.494,538.9,0.0
49759.0,STARLINK-3204,PAYLOAD,2023-01-19 07:49:54,15.0885062,0.0001312,53.2132,240.8585,75.6424,284.4714,0.00033453,5.042e-05,0.0,0 STARLINK-3204,1 49759U 21115AM  23019.32632908  .00005042  00000-0  33453-3 0  9994,2 49759  53.2132 240.8585 0001312  75.6424 284.4714 15.08850620 63878,6917.848000000001,95.437,540.621,538.805,0.0
49759.0,STARLINK-3204,PAYLOAD,2023-01-19 14:11:27,15.08844836,0.0001781999999999,53.2125,239.6698,79.8039,280.3154,0.00022055,3.224e-05,0.0,0 STARLINK-3204,1 49759U 21115AM  23019.59129303  .00003224  00000-0  22055-3 0  9999,2 49759  53.2125 239.6698 0001782  79.8039 280.3154 15.08844836 62807,6917.866,95.437,540.9630000000001,538.498,0.0
49759.0,STARLINK-3204,PAYLOAD,2023-01-19 20:33:00,15.088417499999998,0.0001449,53.2126,238.48,79.4991,280.6164,0.00013949,1.933e-05,0.0,0 STARLINK-3204,1 49759U 21115AM  23019.85625260  .00001933  00000-0  13949-3 0  9998,2 49759  53.2126 238.4800 0001449  79.4991 280.6164 15.08841750 63956,6917.875,95.437,540.742,538.738,0.0
49759.0,STARLINK-3204,PAYLOAD,2023-01-20 07:40:42,15.08843346,0.0001289,53.213,236.3989,76.8085,283.305,0.00036717,5.561e-05,0.0,0 STARLINK-3204,1 49759U 21115AM  23020.31993401  .00005561  00000-0  36717-3 0  9995,2 49759  53.2130 236.3989 0001289  76.8085 283.3050 15.08843346 62915,6917.87,95.437,540.627,538.8430000000001,0.0
